{
    "CCSDS_OMM_VERS": "3.0",
    "COMMENT": "GENERATED VIA SPACE-TRACK.ORG API",
    "CREATION_DATE": "2025-05-22T17:14:14",
    "ORIGINATOR": "18 SPCS",
    "OBJECT_NAME": "NAVSTAR 74 (USA 262)",
    "OBJECT_ID": "2015-033A",
    "CENTER_NAME": "EARTH",
    "REF_FRAME": "TEME",
    "TIME_SYSTEM": "UTC",
    "MEAN_ELEMENT_THEORY": "SGP4",
    "EPOCH": "2025-05-21T20:13:01.722720",
    "MEAN_MOTION": "2.00576323",
    "ECCENTRICITY": "0.01039460",
    "INCLINATION": "54.3013",
    "RA_OF_ASC_NODE": "283.1943",
    "ARG_OF_PERICENTER": "25.0024",
    "MEAN_ANOMALY": "335.4802",
    "EPHEMERIS_TYPE": "0",
    "CLASSIFICATION_TYPE": "U",
    "NORAD_CAT_ID": "40730",
    "ELEMENT_SET_NO": "999",
    "REV_AT_EPOCH": "7214",
    "BSTAR": "0.00000000000000",
    "MEAN_MOTION_DOT": "-0.00000040",
    "MEAN_MOTION_DDOT": "0.0000000000000",
    "SEMIMAJOR_AXIS": "26559.225",
    "PERIOD": "717.931",
    "APOAPSIS": "20457.162",
    "PERIAPSIS": "19905.017",
    "OBJECT_TYPE": "PAYLOAD",
    "RCS_SIZE": "LARGE",
    "COUNTRY_CODE": "US",
    "LAUNCH_DATE": "2015-07-15",
    "SITE": "AFETR",
    "DECAY_DATE": null,
    "FILE": "4736220",
    "GP_ID": "288143664",
    "TLE_LINE0": "0 NAVSTAR 74 (USA 262)",
    "TLE_LINE1": "1 40730U 15033A   25141.84238105 -.00000040  00000-0  00000-0 0  9995",
    "TLE_LINE2": "2 40730  54.3013 283.1943 0103946  25.0024 335.4802  2.00576323 72145"
}